[{"OBJECT_NAME":"YINHE-1","OBJECT_ID":"2020-004A","EPOCH":"2026-03-09T22:55:05.644416","MEAN_MOTION":14.79015566,"ECCENTRICITY":0.00131658,"INCLINATION":86.3997,"RA_OF_ASC_NODE":160.1115,"ARG_OF_PERICENTER":358.9121,"MEAN_ANOMALY":1.2068,"EPHEMERIS_TYPE":0,"CLASSIFICATION_TYPE":"U","NORAD_CAT_ID":45024,"ELEMENT_SET_NO":999,"REV_AT_EPOCH":33125,"BSTAR":0.00018596346,"MEAN_MOTION_DOT":1.401e-5,"MEAN_MOTION_DDOT":0},{"OBJECT_NAME":"SL-14 R\/B","OBJECT_ID":"1992-080B","EPOCH":"2026-03-09T22:53:17.430144","MEAN_MOTION":14.80314172,"ECCENTRICITY":0.00181552,"INCLINATION":82.5124,"RA_OF_ASC_NODE":30.0004,"ARG_OF_PERICENTER":209.644,"MEAN_ANOMALY":150.3746,"EPHEMERIS_TYPE":0,"CLASSIFICATION_TYPE":"U","NORAD_CAT_ID":22237,"ELEMENT_SET_NO":999,"REV_AT_EPOCH":79447,"BSTAR":7.0313142e-5,"MEAN_MOTION_DOT":5.6e-6,"MEAN_MOTION_DDOT":0}]
